#cP2024  2 12 18  0  0.00000000     577 d+D   IGS20 EXT AIUB
## 2301 151200.00000000   300.00000000 60352 0.7500000000000
+   78   G01G02G03G04G05G06G07G08G09G10G11G12G13G14G15G16G17
+        G18G19G20G21G22G23G24G25G26G27G28G29G30G31G32R01R02
+        R03R04R05R07R08R09R11R12R13R14R15R16R17R18R19R20R21
+        R22R24E02E03E04E05E07E08E09E10E11E12E13E14E15E18E19
+        E21E24E25E26E27E30E31E33E34E36  0  0  0  0  0  0  0
++         5  7  6  6  7  6  7  6  6  6  7  7  6  6  7  7  7
++         7  7  7  7  7  6  6  7  6  6  6  7  5  7  6  9  7
++         8  8  8  8  8  7  6  7  7  6  6  6  8  7  9  9  8
++         7  8  6  6  6  6  7  6  7  7  7  6  6  7  7  7  6
++         6  6  6  7  6 10  6  7  6  7  0  0  0  0  0  0  0
%c M  cc GPS ccc cccc cccc cccc cccc ccccc ccccc ccccc ccccc
%c cc cc ccc ccc cccc cccc cccc cccc ccccc ccccc ccccc ccccc
%f  1.2500000  1.025000000  0.00000000000  0.000000000000000
%f  0.0000000  0.000000000  0.00000000000  0.000000000000000
%i    0    0    0    0      0      0      0      0         0
%i    0    0    0    0      0      0      0      0         0
/* Center for Orbit Determination in Europe (CODE)          
/* Ultra-rapid GRE orbits starting year-day 24043 18 hour   
/* Observed/predicted: 24/24 hours (data used up to 044R)   
/* PCV:IGS20      OL/AL:FES2014b NONE     YN ORB:CoN CLK:BRD
*  2024  2 13  3 20  0.00000000
PG01  10563.771678  12661.777641 -21242.579678    169.335904
PG02   2015.214188  14740.348085 -21500.193626   -486.286386
PG03  10551.512782  22818.678954  -8898.927561    189.685626
PG04    781.412418  22536.056580  13938.965000    290.346921
PG05   -581.468807 -19338.019729  17982.742079   -161.609721
PG06  25655.846035  -6054.991035   3764.524824    409.196436
PG07  21678.430522   7168.790179  14445.045744    -60.657854
PG08  -4445.767065  25265.280707  -6038.823803   -166.750455
PG09  10971.251821  12372.786914  20691.280292     90.357884
PG10 -19027.495686  -4708.411098 -17869.284424      0.111322
PG11  19016.355158 -11851.425358  14249.124379   -573.952493
PG12  -8411.405504 -23562.848875  -9303.377283   -477.449350
PG13  13516.591802 -22695.027558    904.743960    625.031222
PG14  20115.540479   8219.621979 -15376.127162    324.312190
PG15   1167.499602 -25793.146925  -6228.138328    127.143233
PG16  -6963.290134  15066.088167  20296.188371   -363.839535
PG17  16259.812950  -1635.010927 -20546.363147    717.161274
PG18 -22350.590112  -6053.499866  13188.944380   -554.372892
PG19  18078.542919 -10279.970199 -16494.016629    439.914831
PG20  10863.200026 -10985.971703  21661.765804    387.706685
PG21  -3337.405740  15586.646772 -20575.824226    135.129289
PG22  17124.500275    899.094289 -19775.268545     32.118311
PG23 -20269.496310 -15072.095114  -8495.590637    155.042020
PG24   -220.621235 -16239.947371 -21385.257793   -430.818392
PG25 -17023.330537 -20576.492503     41.532656    488.416627
PG26 -15084.635910   6481.819499  20780.438477    190.786545
PG27 -12776.370339  22240.325610   5678.158281     -3.550274
PG28 -26014.015897   5299.386075    650.342286   -129.259227
PG29  -8508.026179 -14484.388374  20497.987960   -607.085866
PG30  26306.886183   -399.116810   4706.983056   -433.285073
PG31 -22841.973252   9846.620268   9652.457075   -227.747452
PG32 -16741.251770   5556.240908 -19591.446365   -611.321578
PR01  -4734.069357  22097.264974 -11836.961775     77.031758
PR02   2720.041123  24699.475871   5655.442856    -22.460006
PR03   9433.938038  13200.847713  19711.476253     94.418219
PR04  10507.219773  -5056.928075  22721.750244    223.213287
PR05   6241.131552 -20727.876469  13530.039885    126.834569
PR07  -9562.508208 -12503.465306 -20044.576895     75.702347
PR08 -10521.720465   5362.483462 -22541.191909    -74.379761
PR09 -11099.415100 -15304.114563 -17069.398424    169.706788
PR11 -21111.671537  -4027.910274  13731.064848     34.518877
PR12  -6844.592065   8810.851997  22956.159500     36.686279
PR13   8856.589493  14940.937395  18657.739968    -44.298849
PR14  21978.838019  12852.028635   1706.429795     26.057138
PR15  20488.392041   3147.980845 -14856.423975     82.248936
PR16   7020.762772  -8536.758199 -22988.622630     23.240817
PR17  14963.815068   2081.087687 -20531.451864     60.800150
PR18  22592.414835  -8731.413765  -8073.050093    127.113031
PR19  20013.641831 -14192.879654   6987.526703   -265.610404
PR20   2844.708562 -12601.218813  22016.157386   -108.172780
PR21 -15159.098335  -1925.366465  20433.243787    -76.540304
PR22 -22980.871273   8518.780257   7066.033051    107.842082
PR24  -1497.993728  12844.629191 -21968.772268    -43.697009
PE02  18455.193376  23110.551067   -929.750505    102.963610
PE03   8968.252388  18076.778123  21657.026360    -93.470018
PE04 -18452.355103   2727.277258 -22974.393113   -326.034663
PE05  -5598.527548  28019.049455   7732.882229   4719.532736
PE07  17162.594721 -21365.084675  11186.106121   -103.487693
PE08  18164.885976  -1996.162275  23285.555942   -223.040046
PE09 -17127.790730  21326.415639 -11322.901863   -334.141972
PE10 -28554.228676   6621.373343  -4115.714150   -601.530604
PE11 -23110.957303  12187.116410 -13897.056700   3249.574310
PE12 -29128.480210    571.617569   5163.405459   -904.055188
PE13  23616.361314 -11870.742592  13346.342950    -20.166004
PE14  15845.681719  12128.849715 -23027.417472 999999.999999
PE15  29051.132220   -280.954138  -5693.596338    -85.504980
PE18 -19589.044874   6502.105701  17601.930892 999999.999999
PE19  -7217.790105 -19907.487677 -20675.886059   -625.397730
PE21  -4791.991997 -24418.250584 -16043.882318   -578.744635
PE24 -12690.508042  11143.753250  24285.685436   -595.271469
PE25   4447.441634  24283.472579  16320.800266      0.817495
PE26   3718.354390 -16486.032232  24311.852200    367.223587
PE27  12305.986970 -11554.056740 -24322.203674   -273.373285
PE30  22006.324846   8225.856974 -18013.920161 999999.999999
PE31 -21964.787088  -7990.570069  18164.948232    -15.878599
PE33 -16842.179767 -11574.617692  21420.935828      7.509092
PE34  17397.914560  11281.917085 -21122.110058    -94.334389
PE36  -4460.997358  16331.380093 -24271.200842   -185.189747
EOF
